LUDI TANCE 1-01A (L-SA*)
1 51284U 22007A   26160.65172314  .00000587  00000+0  69210-4 0  9996
2 51284  97.8097 168.1788 0001584  90.6615 269.4783 14.88412612237352
LUDI TANCE 1-01B (L-SA*)
1 51822U 22018A   26160.61808837  .00000560  00000+0  66323-4 0  9991
2 51822  97.8103 168.1415 0001604  91.1061 269.0340 14.88409024232587
2022-023F               
1 51951U 22023F   26159.71209286  .00015685  00000+0  62558-3 0  9991
2 51951  63.4454 302.2925 0129323 342.7663  16.9077 15.17938636236429
MERIDIAN 10             
1 52145U 22030A   26159.99481111  .00000249  00000+0  00000+0 0  9994
2 52145  62.6781 141.6748 6781430 272.8608  17.6751  2.00614533 30860
OMNI-L1                 
1 52157U 22033A   26160.21573531  .00001734  00000+0  22126-3 0  9992
2 52157  97.8390 239.5479 0004095 322.6981  37.3947 14.82719982226279
ENMAP                   
1 52159U 22033C   26160.56758845  .00000127  00000+0  26371-4 0  9997
2 52159  97.9787 242.9255 0001402  83.4546 276.6823 14.74981041225537
ARCSAT-1                
1 52161U 22033E   26160.52493098  .00011133  00000+0  17727-3 0  9995
2 52161  97.2750 252.6853 0004182 208.6520 151.4504 15.53431463234516
GLOBAL-18               
1 52196U 22034B   26160.11013335  .00019614  00000+0  40425-3 0  9994
2 52196  52.9825 295.2326 0003203 235.2080 124.8625 15.45929658235713
GAOFEN-3 03             
1 52200U 22035A   26160.59808722  .00000099  00000+0  43154-4 0  9995
2 52200  98.4066 169.2889 0001123  96.9542 263.1776 14.42214312219759
DAQI-1                  
1 52257U 22039A   26160.59463027  .00000140  00000+0  40471-4 0  9992
2 52257  98.1479  99.6035 0002385 291.9310  68.1636 14.57672672220838
BRO-6                   
1 52422U 22047AE  26160.52130326  .00032168  00000+0  57340-3 0  9998
2 52422  97.3394 251.4325 0005622 103.7399 256.4478 15.50023329229965
JILIN-1 GAOFEN 3D27     
1 52444U 22048B   26160.52852027  .00106864  00000+0  75844-3 0  9996
2 52444  97.5695 273.7811 0002003  85.4905 274.6588 15.73596760228277
JILIN-1 GAOFEN 3D28     
1 52445U 22048C   26160.54195592  .00127012  00000+0  79801-3 0  9991
2 52445  97.5638 273.9161 0001376 144.3340 215.8018 15.76363360228327
VIGORIDE-3              
1 52760U 22057AE  26160.41986710  .00005131  00000+0  19519-3 0  9994
2 52760  97.6595 300.1902 0009196 144.4590 215.7262 15.27198134223979
ION SCV-006             
1 52761U 22057AF  26160.39400895  .00011790  00000+0  24967-3 0  9998
2 52761  97.6090 308.6444 0018225 139.9566 220.3030 15.45096415224918
SHERPA-AC1              
1 52763U 22057AH  26160.38072593  .00006766  00000+0  19433-3 0  9998
2 52763  97.6675 309.2834 0008881 116.8188 243.3964 15.36155526224505
OMNI-L2                 
1 52771U 22057AR  26160.48971655  .00001329  00000+0  17617-3 0  9997
2 52771  97.4718 223.3653 0006482   3.9794 356.1470 14.81350614219254
STEP CUBE LAB-II        
1 52897U 22065D   26160.68256830  .00000865  00000+0  17687-3 0  9999
2 52897  98.2221 304.6082 0009723  53.7782 306.4317 14.63292451210401
RANDEV                  
1 52898U 22065E   26160.61726617  .00000960  00000+0  19361-3 0  9995
2 52898  98.2207 304.8913 0009033  54.5778 305.6267 14.63679411210140
SNUGLITE-II             
1 52899U 22065F   26160.37800171  .00000877  00000+0  17522-3 0  9991
2 52899  98.2193 305.2230 0008441  55.0980 305.1015 14.64333234209858
MIMAN                   
1 52900U 22065G   26160.38216923  .00000514  00000+0  11235-3 0  9994
2 52900  98.2251 302.9044 0008639  56.7271 303.4757 14.61835731209303
STARLINK-4362           
1 53043U 22077A   26160.48999948 -.00001267  00000+0 -83818-4 0  9997
2 53043  97.3826 339.7825 0002238  79.3201 280.8278 15.05657606214728
LARES-2                 
1 53105U 22080A   26158.30850879 -.00000008  00000+0  00000+0 0  9995
2 53105  70.1642 308.7172 0005412 333.4127  26.6130  6.38965096 91032
GREENCUBE (IO-117)      
1 53109U 22080E   26152.46502029 -.00000003  00000+0  00000+0 0  9996
2 53109  70.1435 303.7143 0008869 293.3663  66.6064  6.42583280 91055
STARLINK-4410           
1 53204U 22084R   26160.42621749  .00023441  00000+0  87604-3 0  9991
2 53204  97.6008 221.3474 0001330  79.2745 280.8643 15.27357423213826
COSMOS 2558             
1 53323U 22089A   26160.51932999  .00098974  00000+0  70307-3 0  9995
2 53323  97.2253 264.2804 0000672 198.1679 161.9562 15.73602531216628
TECMS                   
1 53346U 22090A   26160.59521383  .00003403  00000+0  15489-3 0  9994
2 53346  97.3140 228.9188 0002651 202.3683 157.7438 15.21355066213659
