OBJECT_NAME,OBJECT_ID,EPOCH,MEAN_MOTION,ECCENTRICITY,INCLINATION,RA_OF_ASC_NODE,ARG_OF_PERICENTER,MEAN_ANOMALY,EPHEMERIS_TYPE,CLASSIFICATION_TYPE,NORAD_CAT_ID,ELEMENT_SET_NO,REV_AT_EPOCH,BSTAR,MEAN_MOTION_DOT,MEAN_MOTION_DDOT
LUDI TANCE 1-01A (L-SAR 01A),2022-007A,2026-06-09T15:38:28.879296,14.88412612,.00015847,97.8097,168.1788,90.6615,269.4783,0,U,51284,999,23735,.69209615E-4,.587E-5,0
LUDI TANCE 1-01B (L-SAR 01B),2022-018A,2026-06-09T14:50:02.835168,14.88409024,.00016049,97.8103,168.1415,91.1061,269.0340,0,U,51822,999,23258,.66322531E-4,.56E-5,0
2022-023F,2022-023F,2026-06-08T17:05:24.823104,15.17938636,.01293236,63.4454,302.2925,342.7663,16.9077,0,U,51951,999,23642,.62557508E-3,.15685E-3,0
MERIDIAN 10,2022-030A,2026-06-08T23:52:31.679904,2.00614533,.678143,62.6781,141.6748,272.8608,17.6751,0,U,52145,999,3086,0,.249E-5,0
OMNI-L1,2022-033A,2026-06-09T05:10:39.530784,14.82719982,.0004095,97.8390,239.5479,322.6981,37.3947,0,U,52157,999,22627,.22126E-3,.1734E-4,0
ENMAP,2022-033C,2026-06-09T13:37:19.642080,14.74981041,.00014022,97.9787,242.9255,83.4546,276.6823,0,U,52159,999,22553,.2637095E-4,.127E-5,0
ARCSAT-1,2022-033E,2026-06-09T12:35:54.036672,15.53431463,.00041824,97.2750,252.6853,208.6520,151.4504,0,U,52161,999,23451,.17727304E-3,.11133E-3,0
GLOBAL-18,2022-034B,2026-06-09T02:38:35.521440,15.45929658,.00032031,52.9825,295.2326,235.2080,124.8625,0,U,52196,999,23571,.40425232E-3,.19614E-3,0
GAOFEN-3 03,2022-035A,2026-06-09T14:21:14.735808,14.42214312,.00011234,98.4066,169.2889,96.9542,263.1776,0,U,52200,999,21975,.43154156E-4,.99E-6,0
DAQI-1,2022-039A,2026-06-09T14:16:16.055328,14.57672672,.0002385,98.1479,99.6035,291.9310,68.1636,0,U,52257,999,22083,.40471056E-4,.14E-5,0
BRO-6,2022-047AE,2026-06-09T12:30:40.601664,15.50023329,.00056225,97.3394,251.4325,103.7399,256.4478,0,U,52422,999,22996,.57339708E-3,.32168E-3,0
JILIN-1 GAOFEN 3D27,2022-048B,2026-06-09T12:41:04.151328,15.73596760,.00020037,97.5695,273.7811,85.4905,274.6588,0,U,52444,999,22827,.7584425E-3,.106864E-2,0
JILIN-1 GAOFEN 3D28,2022-048C,2026-06-09T13:00:24.991488,15.76363360,.00013767,97.5638,273.9161,144.3340,215.8018,0,U,52445,999,22832,.79801461E-3,.127012E-2,0
VIGORIDE-3,2022-057AE,2026-06-09T10:04:36.517440,15.27198134,.00091966,97.6595,300.1902,144.4590,215.7262,0,U,52760,999,22397,.1951939E-3,.5131E-4,0
ION SCV-006,2022-057AF,2026-06-09T09:27:22.373280,15.45096415,.00182252,97.6090,308.6444,139.9566,220.3030,0,U,52761,999,22491,.24966818E-3,.1179E-3,0
SHERPA-AC1,2022-057AH,2026-06-09T09:08:14.720352,15.36155526,.00088812,97.6675,309.2834,116.8188,243.3964,0,U,52763,999,22450,.19433425E-3,.6766E-4,0
OMNI-L2,2022-057AR,2026-06-09T11:45:11.509920,14.81350614,.00064827,97.4718,223.3653,3.9794,356.1470,0,U,52771,999,21925,.176172E-3,.1329E-4,0
STEP CUBE LAB-II,2022-065D,2026-06-09T16:22:53.901120,14.63292451,.00097239,98.2221,304.6082,53.7782,306.4317,0,U,52897,999,21040,.17686617E-3,.865E-5,0
RANDEV,2022-065E,2026-06-09T14:48:51.797088,14.63679411,.00090338,98.2207,304.8913,54.5778,305.6267,0,U,52898,999,21014,.19360632E-3,.96E-5,0
SNUGLITE-II,2022-065F,2026-06-09T09:04:19.347744,14.64333234,.00084419,98.2193,305.2230,55.0980,305.1015,0,U,52899,999,20985,.17522225E-3,.877E-5,0
MIMAN,2022-065G,2026-06-09T09:10:19.421472,14.61835731,.00086398,98.2251,302.9044,56.7271,303.4757,0,U,52900,999,20930,.11235173E-3,.514E-5,0
STARLINK-4362,2022-077A,2026-06-09T11:45:35.955072,15.05657606,.00022387,97.3826,339.7825,79.3201,280.8278,0,U,53043,999,21472,-.83818425E-4,-.1267E-4,0
LARES-2,2022-080A,2026-06-07T07:24:15.159456,6.38965096,.0005412,70.1642,308.7172,333.4127,26.6130,0,U,53105,999,9103,0,-.8E-7,0
GREENCUBE (IO-117),2022-080E,2026-06-01T11:09:37.753056,6.42583280,.00088692,70.1435,303.7143,293.3663,66.6064,0,U,53109,999,9105,0,-.3E-7,0
STARLINK-4410,2022-084R,2026-06-09T10:13:45.191136,15.27357423,.00013309,97.6008,221.3474,79.2745,280.8643,0,U,53204,999,21382,.87603856E-3,.23441E-3,0
COSMOS 2558,2022-089A,2026-06-09T12:27:50.111136,15.73602531,.0000672,97.2253,264.2804,198.1679,161.9562,0,U,53323,999,21662,.70307E-3,.98974E-3,0
TECMS,2022-090A,2026-06-09T14:17:06.474912,15.21355066,.00026517,97.3140,228.9188,202.3683,157.7438,0,U,53346,999,21365,.15489233E-3,.3403E-4,0
